{"type": "FeatureCollection", "features": [ {"type": "Feature", "properties": {"norad_id": 67019, "name": "STARLINK-35688", "group": "last-30-days", "lat": 55.89176014680227, "lon": 88.73014121744367, "alt_km": 292.48151998788853, "timestamp": "2025-12-20T11:30:27.108365+00:00", "meta": {"OBJECT_NAME": "STARLINK-35688", "OBJECT_ID": "2025-293S", "EPOCH": "2025-12-20T04:00:00.999072", "MEAN_MOTION": 15.92990474, "ECCENTRICITY": 0.0003868, "INCLINATION": 69.9935, "RA_OF_ASC_NODE": 302.1871, "ARG_OF_PERICENTER": 272.378, "MEAN_ANOMALY": 212.9604, "EPHEMERIS_TYPE": 0, "CLASSIFICATION_TYPE": "U", "NORAD_CAT_ID": 67019, "ELEMENT_SET_NO": 999, "REV_AT_EPOCH": 150, "BSTAR": -0.0037436, "MEAN_MOTION_DOT": -0.0130513, "MEAN_MOTION_DDOT": 0.00049905}, "tle": {"line1": "1 67019U 25293S   25354.16667823 -.01305130  49905-3 -37436-2 0  9992", "line2": "2 67019  69.9935 302.1871 0003868 272.3780 212.9604 15.92990474  1502"}}, "geometry": {"type": "Point", "coordinates": [88.73014121744367, 55.89176014680227]}}, {"type": "Feature", "properties": {"norad_id": 67020, "name": "STARLINK-36172", "group": "last-30-days", "lat": 53.59397968060072, "lon": 91.66352984992731, "alt_km": 292.69760585239146, "timestamp": "2025-12-20T11:30:27.108375+00:00", "meta": {"OBJECT_NAME": "STARLINK-36172", "OBJECT_ID": "2025-293T", "EPOCH": "2025-12-20T04:00:00.999072", "MEAN_MOTION": 15.93042218, "ECCENTRICITY": 0.0003925, "INCLINATION": 69.9934, "RA_OF_ASC_NODE": 302.1839, "ARG_OF_PERICENTER": 274.8612, "MEAN_ANOMALY": 213.2762, "EPHEMERIS_TYPE": 0, "CLASSIFICATION_TYPE": "U", "NORAD_CAT_ID": 67020, "ELEMENT_SET_NO": 999, "REV_AT_EPOCH": 142, "BSTAR": -0.0037902, "MEAN_MOTION_DOT": -0.01324801, "MEAN_MOTION_DDOT": 0.00051328}, "tle": {"line1": "1 67020U 25293T   25354.16667823 -.01324801  51328-3 -37902-2 0  9990", "line2": "2 67020  69.9934 302.1839 0003925 274.8612 213.2762 15.93042218  1427"}}, "geometry": {"type": "Point", "coordinates": [91.66352984992731, 53.59397968060072]}}, {"type": "Feature", "properties": {"norad_id": 67021, "name": "STARLINK-36184", "group": "last-30-days", "lat": 51.45369533128447, "lon": 94.0575420922301, "alt_km": 292.7074523677429, "timestamp": "2025-12-20T11:30:27.108385+00:00", "meta": {"OBJECT_NAME": "STARLINK-36184", "OBJECT_ID": "2025-293U", "EPOCH": "2025-12-20T04:00:00.999072", "MEAN_MOTION": 15.93080032, "ECCENTRICITY": 0.0003885, "INCLINATION": 69.9936, "RA_OF_ASC_NODE": 302.1806, "ARG_OF_PERICENTER": 271.3686, "MEAN_ANOMALY": 219.3128, "EPHEMERIS_TYPE": 0, "CLASSIFICATION_TYPE": "U", "NORAD_CAT_ID": 67021, "ELEMENT_SET_NO": 999, "REV_AT_EPOCH": 142, "BSTAR": -0.0037602, "MEAN_MOTION_DOT": -0.01316957, "MEAN_MOTION_DDOT": 0.00050788}, "tle": {"line1": "1 67021U 25293U   25354.16667823 -.01316957  50788-3 -37602-2 0  9990", "line2": "2 67021  69.9936 302.1806 0003885 271.3686 219.3128 15.93080032  1421"}}, "geometry": {"type": "Point", "coordinates": [94.0575420922301, 51.45369533128447]}}, {"type": "Feature", "properties": {"norad_id": 67022, "name": "STARLINK-36209", "group": "last-30-days", "lat": 48.88399057638208, "lon": 96.59427558098342, "alt_km": 292.94001745742844, "timestamp": "2025-12-20T11:30:27.108398+00:00", "meta": {"OBJECT_NAME": "STARLINK-36209", "OBJECT_ID": "2025-293V", "EPOCH": "2025-12-20T04:00:00.999072", "MEAN_MOTION": 15.93132837, "ECCENTRICITY": 0.0003964, "INCLINATION": 69.9934, "RA_OF_ASC_NODE": 302.1773, "ARG_OF_PERICENTER": 272.4997, "MEAN_ANOMALY": 221.1642, "EPHEMERIS_TYPE": 0, "CLASSIFICATION_TYPE": "U", "NORAD_CAT_ID": 67022, "ELEMENT_SET_NO": 999, "REV_AT_EPOCH": 142, "BSTAR": -0.0037848, "MEAN_MOTION_DOT": -0.01329138, "MEAN_MOTION_DDOT": 0.00051685}, "tle": {"line1": "1 67022U 25293V   25354.16667823 -.01329138  51685-3 -37848-2 0  9995", "line2": "2 67022  69.9934 302.1773 0003964 272.4997 221.1642 15.93132837  1421"}}, "geometry": {"type": "Point", "coordinates": [96.59427558098342, 48.88399057638208]}}, {"type": "Feature", "properties": {"norad_id": 67023, "name": "STARLINK-36191", "group": "last-30-days", "lat": 46.74425205809487, "lon": 98.48049010722943, "alt_km": 293.08648791956057, "timestamp": "2025-12-20T11:30:27.108410+00:00", "meta": {"OBJECT_NAME": "STARLINK-36191", "OBJECT_ID": "2025-293W", "EPOCH": "2025-12-20T04:00:00.999072", "MEAN_MOTION": 15.93180904, "ECCENTRICITY": 0.000393, "INCLINATION": 69.9935, "RA_OF_ASC_NODE": 302.1738, "ARG_OF_PERICENTER": 273.6186, "MEAN_ANOMALY": 222.4802, "EPHEMERIS_TYPE": 0, "CLASSIFICATION_TYPE": "U", "NORAD_CAT_ID": 67023, "ELEMENT_SET_NO": 999, "REV_AT_EPOCH": 131, "BSTAR": -0.0038153, "MEAN_MOTION_DOT": -0.01343058, "MEAN_MOTION_DDOT": 0.00052714}, "tle": {"line1": "1 67023U 25293W   25354.16667823 -.01343058  52714-3 -38153-2 0  9997", "line2": "2 67023  69.9935 302.1738 0003930 273.6186 222.4802 15.93180904  1318"}}, "geometry": {"type": "Point", "coordinates": [98.48049010722943, 46.74425205809487]}}, {"type": "Feature", "properties": {"norad_id": 67024, "name": "STARLINK-36192", "group": "last-30-days", "lat": 44.27879233211554, "lon": 100.44972573232057, "alt_km": 292.84990653893965, "timestamp": "2025-12-20T11:30:27.108422+00:00", "meta": {"OBJECT_NAME": "STARLINK-36192", "OBJECT_ID": "2025-293X", "EPOCH": "2025-12-19T22:00:01.999584", "MEAN_MOTION": 15.93919811, "ECCENTRICITY": 0.00038295, "INCLINATION": 69.994, "RA_OF_ASC_NODE": 302.8985, "ARG_OF_PERICENTER": 266.985, "MEAN_ANOMALY": 238.1541, "EPHEMERIS_TYPE": 0, "CLASSIFICATION_TYPE": "U", "NORAD_CAT_ID": 67024, "ELEMENT_SET_NO": 999, "REV_AT_EPOCH": 138, "BSTAR": -0.0037504752, "MEAN_MOTION_DOT": -0.01372086, "MEAN_MOTION_DDOT": 0.00055246849}, "tle": {"line1": "1 67024U 25293X   25353.91668981 -.01372086  55247-3 -37505-2 0  9993", "line2": "2 67024  69.9940 302.8985 0003829 266.9850 238.1541 15.93919811  1384"}}, "geometry": {"type": "Point", "coordinates": [100.44972573232057, 44.27879233211554]}}, {"type": "Feature", "properties": {"norad_id": 67025, "name": "STARLINK-36178", "group": "last-30-days", "lat": 42.276044432883005, "lon": 101.91244470116538, "alt_km": 293.35070829747383, "timestamp": "2025-12-20T11:30:27.108433+00:00", "meta": {"OBJECT_NAME": "STARLINK-36178", "OBJECT_ID": "2025-293Y", "EPOCH": "2025-12-20T04:00:00.999072", "MEAN_MOTION": 15.93266969, "ECCENTRICITY": 0.000395, "INCLINATION": 69.9934, "RA_OF_ASC_NODE": 302.168, "ARG_OF_PERICENTER": 272.559, "MEAN_ANOMALY": 228.5332, "EPHEMERIS_TYPE": 0, "CLASSIFICATION_TYPE": "U", "NORAD_CAT_ID": 67025, "ELEMENT_SET_NO": 999, "REV_AT_EPOCH": 142, "BSTAR": -0.0037896, "MEAN_MOTION_DOT": -0.01340086, "MEAN_MOTION_DDOT": 0.00052544}, "tle": {"line1": "1 67025U 25293Y   25354.16667823 -.01340086  52544-3 -37896-2 0  9991", "line2": "2 67025  69.9934 302.1680 0003950 272.5590 228.5332 15.93266969  1427"}}, "geometry": {"type": "Point", "coordinates": [101.91244470116538, 42.276044432883005]}}, {"type": "Feature", "properties": {"norad_id": 67026, "name": "STARLINK-36176", "group": "last-30-days", "lat": 37.763610569231794, "lon": 104.85692555221598, "alt_km": 293.7241151223652, "timestamp": "2025-12-20T11:30:27.108444+00:00", "meta": {"OBJECT_NAME": "STARLINK-36176", "OBJECT_ID": "2025-293Z", "EPOCH": "2025-12-20T04:00:00.999072", "MEAN_MOTION": 15.93358483, "ECCENTRICITY": 0.0003965, "INCLINATION": 69.9932, "RA_OF_ASC_NODE": 302.1621, "ARG_OF_PERICENTER": 274.13, "MEAN_ANOMALY": 231.9036, "EPHEMERIS_TYPE": 0, "CLASSIFICATION_TYPE": "U", "NORAD_CAT_ID": 67026, "ELEMENT_SET_NO": 999, "REV_AT_EPOCH": 142, "BSTAR": -0.0038048, "MEAN_MOTION_DOT": -0.0135181, "MEAN_MOTION_DDOT": 0.00053445}, "tle": {"line1": "1 67026U 25293Z   25354.16667823 -.01351810  53445-3 -38048-2 0  9990", "line2": "2 67026  69.9932 302.1621 0003965 274.1300 231.9036 15.93358483  1426"}}, "geometry": {"type": "Point", "coordinates": [104.85692555221598, 37.763610569231794]}}, {"type": "Feature", "properties": {"norad_id": 67027, "name": "STARLINK-36171", "group": "last-30-days", "lat": 39.67956299613157, "lon": 103.6601499329127, "alt_km": 293.5527096562146, "timestamp": "2025-12-20T11:30:27.108454+00:00", "meta": {"OBJECT_NAME": "STARLINK-36171", "OBJECT_ID": "2025-293AA", "EPOCH": "2025-12-20T04:00:00.999072", "MEAN_MOTION": 15.93318826, "ECCENTRICITY": 0.0003885, "INCLINATION": 69.9932, "RA_OF_ASC_NODE": 302.1649, "ARG_OF_PERICENTER": 274.0364, "MEAN_ANOMALY": 229.9101, "EPHEMERIS_TYPE": 0, "CLASSIFICATION_TYPE": "U", "NORAD_CAT_ID": 67027, "ELEMENT_SET_NO": 999, "REV_AT_EPOCH": 142, "BSTAR": -0.0038068, "MEAN_MOTION_DOT": -0.01349697, "MEAN_MOTION_DDOT": 0.0005327}, "tle": {"line1": "1 67027U 25293AA  25354.16667823 -.01349697  53270-3 -38068-2 0  9999", "line2": "2 67027  69.9932 302.1649 0003885 274.0364 229.9101 15.93318826  1424"}}, "geometry": {"type": "Point", "coordinates": [103.6601499329127, 39.67956299613157]}}, {"type": "Feature", "properties": {"norad_id": 67028, "name": "STARLINK-36132", "group": "last-30-days", "lat": 33.139666101600035, "lon": 107.48446107807113, "alt_km": 294.0372766460705, "timestamp": "2025-12-20T11:30:27.108465+00:00", "meta": {"OBJECT_NAME": "STARLINK-36132", "OBJECT_ID": "2025-293AB", "EPOCH": "2025-12-20T04:00:00.999072", "MEAN_MOTION": 15.93454506, "ECCENTRICITY": 0.0003967, "INCLINATION": 69.9934, "RA_OF_ASC_NODE": 302.1562, "ARG_OF_PERICENTER": 273.7444, "MEAN_ANOMALY": 237.2782, "EPHEMERIS_TYPE": 0, "CLASSIFICATION_TYPE": "U", "NORAD_CAT_ID": 67028, "ELEMENT_SET_NO": 999, "REV_AT_EPOCH": 142, "BSTAR": -0.0038215, "MEAN_MOTION_DOT": -0.01364452, "MEAN_MOTION_DDOT": 0.00054424}, "tle": {"line1": "1 67028U 25293AB  25354.16667823 -.01364452  54424-3 -38215-2 0  9992", "line2": "2 67028  69.9934 302.1562 0003967 273.7444 237.2782 15.93454506  1420"}}, "geometry": {"type": "Point", "coordinates": [107.48446107807113, 33.139666101600035]}}]}